OBJECT_NAME,OBJECT_ID,EPOCH,MEAN_MOTION,ECCENTRICITY,INCLINATION,RA_OF_ASC_NODE,ARG_OF_PERICENTER,MEAN_ANOMALY,EPHEMERIS_TYPE,CLASSIFICATION_TYPE,NORAD_CAT_ID,ELEMENT_SET_NO,REV_AT_EPOCH,BSTAR,MEAN_MOTION_DOT,MEAN_MOTION_DDOT
2026-134D,2026-134D,2026-06-16T17:22:44.304960,15.09445295,.00148404,97.7025,237.8255,276.5336,83.4203,0,U,69541,999,23,.83078072E-4,.1266E-4,0
2026-134E,2026-134E,2026-06-16T17:22:42.407616,15.09467803,.00146582,97.7041,237.8242,277.3931,82.5632,0,U,69542,999,23,.83105574E-4,.1267E-4,0
2026-134F,2026-134F,2026-06-16T17:22:38.568864,15.09514165,.00139127,97.6997,237.8242,279.0587,80.9067,0,U,69543,999,23,.83160067E-4,.1269E-4,0
2026-134G,2026-134G,2026-06-16T17:22:31.040832,15.09597497,.00143734,97.7039,237.8238,280.6343,79.3267,0,U,69544,999,23,.83062569E-4,.1271E-4,0
2026-134H,2026-134H,2026-06-16T17:22:25.300416,15.09663011,.00142577,97.7027,237.8253,282.3147,77.6485,0,U,69545,999,22,.83079471E-4,.1274E-4,0
SHIJIAN-31 (SJ-31),2026-136A,2026-06-16T20:21:12.015072,2.28095748,.7310406,63.4649,356.1810,171.7246,356.2040,0,U,69570,999,5,.28088E-3,.6163E-4,.24751E-6
GUOWANG OBJECT A,2026-137A,2026-06-18T17:42:50.783328,13.92193176,.0012348,50.0029,249.2360,231.9986,127.9799,0,U,69572,999,23,.22171E-4,-.118E-5,0
GUOWANG OBJECT B,2026-137B,2026-06-18T17:42:43.149888,13.92270433,.0012143,50.0048,249.2343,230.3393,129.6436,0,U,69573,999,24,.22156E-4,-.118E-5,0
GUOWANG OBJECT C,2026-137C,2026-06-18T17:42:32.839776,13.92372898,.001171,49.9986,249.2258,231.2773,128.7080,0,U,69574,999,24,.22129E-4,-.118E-5,0
GUOWANG OBJECT D,2026-137D,2026-06-18T17:42:29.195424,13.92409602,.001128,49.9986,249.2250,231.4150,128.5740,0,U,69575,999,24,.22118E-4,-.118E-5,0
GUOWANG OBJECT E,2026-137E,2026-06-18T17:42:25.689312,13.92445799,.0010996,50.0064,249.2370,233.6925,126.2959,0,U,69576,999,24,.22104E-4,-.118E-5,0
GUOWANG OBJECT F,2026-137F,2026-06-18T17:42:12.930624,13.92572408,.0010774,50.0036,249.2387,234.1200,125.8700,0,U,69577,999,24,.22065E-4,-.118E-5,0
GUOWANG OBJECT G,2026-137G,2026-06-18T17:42:09.861696,13.92602604,.001034,49.9995,249.2218,235.1265,124.8663,0,U,69578,999,24,.22057E-4,-.118E-5,0
GUOWANG OBJECT H,2026-137H,2026-06-18T17:42:03.880224,13.92663549,.0010034,50.0022,249.2278,238.0253,121.9672,0,U,69579,999,24,.22037E-4,-.118E-5,0
GUOWANG OBJECT J,2026-137J,2026-06-18T17:41:49.478208,13.92809624,.0009498,50.0015,249.2217,232.6520,127.3515,0,U,69580,999,24,.21995E-4,-.118E-5,0
CENTISPACE-1 GROUP 05 OBJECT A,2026-138A,2026-06-18T11:35:39.147936,14.15572309,.000996,55.1445,276.3707,278.1722,81.8122,0,U,69582,999,20,.19051E-4,-.116E-5,0
CENTISPACE-1 GROUP 05 OBJECT B,2026-138B,2026-06-18T11:35:25.266912,14.15750919,.0009095,55.1443,276.3679,279.3206,80.6740,0,U,69583,999,20,.2203E-4,-.11E-5,0
CENTISPACE-1 GROUP 05 OBJECT C,2026-138C,2026-06-18T11:35:19.171392,14.15830371,.0008531,55.1452,276.3744,279.2700,80.7310,0,U,69584,999,20,.23745E-4,-.107E-5,0
CENTISPACE-1 GROUP 05 OBJECT D,2026-138D,2026-06-18T09:53:31.366176,14.15938331,.0008654,55.1477,276.6254,281.1058,78.8943,0,U,69585,999,19,.26394E-4,-.101E-5,0
CENTISPACE-1 GROUP 05 OBJECT E,2026-138E,2026-06-17T16:56:54.275136,14.15991898,.00076936,55.1398,279.2280,274.2812,85.7284,0,U,69586,999,9,.43909986E-4,-.67E-6,0
CENTISPACE-1 GROUP 05 OBJECT F,2026-138F,2026-06-18T09:53:26.572704,14.16000241,.0008297,55.1465,276.6321,285.7708,74.2351,0,U,69587,999,19,.28096E-4,-.98E-6,0
CENTISPACE-1 GROUP 05 OBJECT G,2026-138G,2026-06-18T11:34:52.663872,14.16170753,.000705,55.1448,276.3650,279.9943,80.0236,0,U,69588,999,20,.29348E-4,-.95E-6,0
SPACEMOBILE-008,2026-139A,2026-06-17T20:49:20.437824,15.12492987,.00036881,52.9984,259.4733,322.0387,38.0343,0,U,69589,999,9,.51823416E-4,.613E-5,0
SPACEMOBILE-009,2026-139B,2026-06-17T22:24:23.719104,15.12664370,.00037048,52.9957,259.1737,335.3231,24.7582,0,U,69590,999,9,.51728609E-4,.615E-5,0
SPACEMOBILE-010,2026-139C,2026-06-17T16:03:47.641824,15.12770881,.0003918,52.9976,260.3752,341.5126,18.5722,0,U,69591,999,5,.10725569E-3,.1603E-4,0
